ALOS-4 (DAICHI-4)       
1 60182U 24123A   24247.51603084  .00007335  00000+0  98810-3 0  9991
2 60182  97.9220 343.0509 0001538  99.6411 260.4975 14.79469233  9526
